STARLINK-31754          
1 59488U 24071E   26068.13686447  .00003274  00000+0  12843-3 0  9995
2 59488  43.0014 350.4320 0001328 258.4045 101.6657 15.27584946108036
2025-155V               
1 64895U 25155V   26068.85787115  .00013705  00000+0  51002-3 0  9990
2 64895  97.4485  37.2490 0008035 152.8264 207.3397 15.27583301 65579
